#dP2024  9 25  0  0  0.00000000      96 __u+U IGS20 EXT  IAC
## 2333 259200.00000000   900.00000000 60578 0.0000000000000
+   54   G01G02G03G04G05G06G07G08G09G10G11G12G13G14G15G16G17
+        G18G19G20G21G22G23G24G25G26G27G28G29G30G31G32R01R02
+        R03R04R05R07R08R09R11R12R14R15R16R17R18R19R20R21R22
+        R24R25R26  0  0  0  0  0  0  0  0  0  0  0  0  0  0
+          0  0  0  0  0  0  0  0  0  0  0  0  0  0  0  0  0
++        12  8  7  8  8  7  7  7  7  7  8  7  6  7  6  6  7
++         7  7  7  7  7  7  6  6  7  8  8  7  7  9  7  8  9
++         9  9  8  7 10  7  9  6  7  7  7  9  7 10  8  8  7
++         9  7  8  0  0  0  0  0  0  0  0  0  0  0  0  0  0
++         0  0  0  0  0  0  0  0  0  0  0  0  0  0  0  0  0
%c M  cc GPS ccc cccc cccc cccc cccc ccccc ccccc ccccc ccccc
%c cc cc ccc ccc cccc cccc cccc cccc ccccc ccccc ccccc ccccc
%f  0.0000000  0.000000000  0.00000000000  0.000000000000000
%f  0.0000000  0.000000000  0.00000000000  0.000000000000000
%i    0    0    0    0      0      0      0      0         0
%i    0    0    0    0      0      0      0      0         0
/* IAC                                ULTRA-RAPID PREDICTION
/* S/V CLOCKS ARE ALIGNED TO GNSS TIME                      
/* G:C1WC2W R:C1PC2P E:C1XC5X C:C2IC6I J:C1CC2S             
/* PCV:IGS20_2317 OL/AL:FES2004  NONE     YN ORB:CoN CLK:CoN
*  2024 09 25 13 30  0.00000000
PG01 -24429.336261  -6837.387704   8035.834345    188.306683
PG02  -9804.653859  19675.652100 -14190.163182   -350.635577
PG03   3274.375053  16998.506938 -20343.395880    549.798676
PG04   -792.253117  26437.303327  -1291.090048    450.212382
PG05  13477.952862  -9300.239629  20743.527265   -187.748699
PG06  22184.062786  -2409.128432 -14420.608968      6.437151
PG07   8089.991785  13434.345166  21959.049299    -33.899614
PG08  -7225.157843  22039.343286  12423.331279    364.270917
PG09   7546.830050  23919.355608   8549.724289    371.498895
PG10 -24388.508601 -10368.170188  -3382.308060   -136.885905
PG11  23313.033534 -12626.690561   -753.155569   -738.281249
PG12   1741.895240 -16298.848497 -21186.952623   -540.627089
PG13  13194.646046 -15255.321071  16926.173136    678.324609
PG14  23309.435973  12992.162101     63.970519    503.488750
PG15   4077.811783 -23216.185053  11557.187046    208.368665
PG16 -17954.581043   4195.274678  18938.839844   -171.615090
PG17  13327.270198  11077.004562 -19655.665496    616.056407
PG18  -8348.533203 -12385.439451  21989.249267   -655.236812
PG19  15054.694160   2119.167436 -21940.319261    542.580096
PG20  22015.723031  -3693.988177  14345.483936    370.286501
PG21 -14270.667283  19372.010124  -9549.585606    101.056818
PG22  23535.155617   8754.889890  -7762.729928    -65.254709
PG23 -19088.299495 -16230.198303   9172.056846    327.920210
PG24  10476.011144 -20556.112930 -13237.133138   -486.270914
PG25 -11687.195200 -18417.062531 -15675.106197    499.627083
PG26 -24722.269403  -2615.331134   9701.260678     70.862950
PG27 -12825.407719  12528.674594  19158.814285    -34.035275
PG28 -21208.963309    881.539103 -15979.742533   -423.869660
PG29  -3660.926411 -25364.764053   6683.796841   -575.557786
PG30  17550.716800   5748.869185  19327.983652   -314.630595
PG31 -24277.752603   9827.768866  -5744.539296   -224.248041
PG32 -14450.976520  -9340.546506 -20073.494445   -593.657907
PR01 -12711.549051 -21446.835245  -5385.685530     98.935244
PR02 -13653.959842  -9461.146669 -19347.803974    -24.840438
PR03  -7774.935576   8756.618720 -22613.832255    108.233250
PR04   2157.305351  21508.982210 -13503.349379    256.338361
PR05  10827.789889  22903.598421   2849.554316    138.184851
PR07   7474.861818  -9391.923067  22548.343861     91.624311
PR08  -2405.775925 -21650.239730  13359.568188     -6.397038
PR09  25230.015939   3324.523058   2337.290371    211.117926
PR11   6288.864975 -10085.532099 -22559.168345     10.917803
PR12 -14821.700179 -10371.581930 -17961.912673     45.261546
PR14 -20644.816224   4753.223499  14206.553056     26.965189
PR15  -4440.806516  10540.091175  22821.023699     75.515578
PR16  14702.162923  10258.628465  18175.029325     29.433268
PR17 -17375.654132  17125.661261   7550.358859    125.128753
PR18 -11304.550704  21032.375099  -8901.869188    163.789796
PR19  -1285.252974  15618.096328 -20127.909902   -292.649045
PR20  13951.067045  -1872.833874 -21267.599767   -119.606112
PR21  17557.021432 -16517.921502  -8279.056561   -137.451784
PR22  10895.264256 -20796.372451  10007.176483     38.130648
PR24 -14445.482558   2720.345204  20875.247468    -73.454618
PR25  18005.558894 -16579.012573  -7124.716609    -97.601426
PR26  -1573.679023 -20852.372326  14609.143272     42.359399
*  2024 09 25 13 45  0.00000000
PG01 -25037.793871  -7417.525085   5352.498498    188.297838
PG02 -11167.561499  20491.813470 -11889.219301   -350.628351
PG03   1147.513588  16016.363283 -21345.327876    549.810033
PG04  -1054.661848  26133.228961  -4142.648369    450.218644
PG05  15601.210028  -8303.442842  19665.577070   -187.749763
PG06  20766.777539  -1340.353457 -16500.392196      6.413180
PG07   6086.786239  14744.628664  21718.024991    -33.896086
PG08  -7644.698431  20492.134408  14644.255442    364.282143
PG09   7377.933315  24776.793430   5855.733479    371.513502
PG10 -24537.772729 -10617.676966   -508.958093   -136.897348
PG11  23223.819192 -12286.625627  -3609.720898   -738.284662
PG12   3845.106027 -15147.036459 -21760.304179   -540.629545
PG13  13194.185982 -13170.754767  18594.435252    678.326350
PG14  23036.398263  13169.127822   2868.032276    503.496400
PG15   4702.161310 -21782.417900  13808.299880    208.372677
PG16 -19718.970006   2998.312379  17415.621392   -171.606036
PG17  13222.562994  13334.380498 -18290.719647    616.045770
PG18  -6242.813866 -13734.849129  21866.322722   -655.238540
PG19  14967.093363   4575.116038 -21658.861498    542.584413
PG20  23408.677728  -3073.932402  12085.219051    370.286150
PG21 -15258.726996  19770.981431  -6851.463078    101.056125
PG22  24067.146911   9394.836645  -5018.919806    -65.257936
PG23 -17945.916849 -15888.377363  11711.210565    327.927700
PG24  11689.906783 -21190.622009 -10902.883017   -486.270395
PG25  -9953.814555 -17796.138716 -17498.716373    499.627044
PG26 -25531.906871  -3236.721053   7155.710138     70.854978
PG27 -13139.411283  10218.589754  20304.795648    -34.035672
PG28 -19740.035297   -379.002424 -17781.148315   -423.881876
PG29  -3424.550505 -25975.227813   3889.343537   -575.555562
PG30  15755.336378   7099.554642  20381.063559   -314.624090
PG31 -23749.650253   9217.488894  -8412.288331   -224.247677
PG32 -14531.663247 -11602.993085 -18827.142784   -593.654412
PR01 -13051.882465 -21800.114521  -2217.022285     98.936258
PR02 -14689.457058 -11488.559036 -17403.569904    -24.840730
PR03  -8952.638444   6185.774747 -23028.503004    108.233896
PR04   1528.793079  19789.401169 -15987.736425    256.339936
PR05  11053.509478  22969.166241   -375.580117    138.185354
PR07   8631.426826  -6836.145272  23045.534737     91.625048
PR08  -1769.978806 -19969.505057  15850.766847     -6.396838
PR09  24758.170103   3203.223551   5469.903842    211.119784
PR11   9017.266625  -9918.646740 -21692.981339     10.916897
PR12 -12501.816414 -10106.288531 -19781.592975     45.261997
PR14 -22235.303948   4733.909208  11562.378530     26.965187
PR15  -7205.327318  10337.774676  22198.419134     75.515226
PR16  12365.687600   9987.605768  19974.649844     29.433418
PR17 -16586.526205  16320.958694  10522.138180    125.131769
PR18 -11688.496821  21883.183182  -5829.112679    163.791460
PR19  -2646.369894  17569.072454 -18305.761013   -292.650331
PR20  12228.986666    207.588510 -22376.955473   -119.606623
PR21  16704.315692 -15646.149135 -11217.446334   -137.454807
PR22  11421.558465 -21711.664067   7023.268173     38.121787
PR24 -12871.960352    596.448773  22039.783555    -73.456012
PR25  17250.478020 -15816.056098 -10103.866455    -97.598795
PR26   -851.516543 -19040.800059  16957.467764     42.376821
EOF
